{
  "type": "FeatureCollection",
  "features": [
    {
      "type": "Feature",
      "properties": {
        "norad_id": 24946,
        "name": "IRIDIUM 33",
        "group": "iridium-33-debris",
        "lat": -49.26702600518685,
        "lon": -110.56017253008541,
        "alt_km": 778.5270998922451,
        "timestamp": "2025-12-19T20:43:00.470026+00:00",
        "meta_object_name": "IRIDIUM 33",
        "meta_object_id": "1997-051C",
        "meta_epoch": "2025-12-19T04:35:25.287360",
        "meta_mean_motion": 14.35041788,
        "meta_eccentricity": 0.00078022,
        "meta_inclination": 86.3867,
        "meta_ra_of_asc_node": 65.5138,
        "meta_arg_of_pericenter": 178.4529,
        "meta_mean_anomaly": 181.6693,
        "meta_ephemeris_type": 0,
        "meta_classification_type": "U",
        "meta_norad_cat_id": 24946,
        "meta_element_set_no": 999,
        "meta_rev_at_epoch": 47927,
        "meta_bstar": 8.9488594e-05,
        "meta_mean_motion_dot": 2.75e-06,
        "meta_mean_motion_ddot": 0,
        "tle_line1": "1 24946U 97051C   25353.19126490  .00000275  00000+0  89489-4 0  9992",
        "tle_line2": "2 24946  86.3867  65.5138 0007802 178.4529 181.6693 14.35041788479270"
      },
      "geometry": {
        "type": "Point",
        "coordinates": [
          -110.56017253008541,
          -49.26702600518685
        ]
      }
    },
    {
      "type": "Feature",
      "properties": {
        "norad_id": 33773,
        "name": "IRIDIUM 33 DEB",
        "group": "iridium-33-debris",
        "lat": 36.535276252061884,
        "lon": 60.244143275412945,
        "alt_km": 745.0131644170851,
        "timestamp": "2025-12-19T20:43:00.470072+00:00",
        "meta_object_name": "IRIDIUM 33 DEB",
        "meta_object_id": "1997-051L",
        "meta_epoch": "2025-12-19T05:34:19.132896",
        "meta_mean_motion": 14.43270064,
        "meta_eccentricity": 0.00130039,
        "meta_inclination": 86.4004,
        "meta_ra_of_asc_node": 57.8383,
        "meta_arg_of_pericenter": 127.5412,
        "meta_mean_anomaly": 232.6973,
        "meta_ephemeris_type": 0,
        "meta_classification_type": "U",
        "meta_norad_cat_id": 33773,
        "meta_element_set_no": 999,
        "meta_rev_at_epoch": 88441,
        "meta_bstar": 0.00021422599,
        "meta_mean_motion_dot": 7.42e-06,
        "meta_mean_motion_ddot": 0,
        "tle_line1": "1 33773U 97051L   25353.23216589  .00000742  00000+0  21423-3 0  9996",
        "tle_line2": "2 33773  86.4004  57.8383 0013003 127.5412 232.6973 14.43270064884418"
      },
      "geometry": {
        "type": "Point",
        "coordinates": [
          60.244143275412945,
          36.535276252061884
        ]
      }
    },
    {
      "type": "Feature",
      "properties": {
        "norad_id": 33775,
        "name": "IRIDIUM 33 DEB",
        "group": "iridium-33-debris",
        "lat": 73.99057036256336,
        "lon": 59.319951980084916,
        "alt_km": 741.0682658759415,
        "timestamp": "2025-12-19T20:43:00.470089+00:00",
        "meta_object_name": "IRIDIUM 33 DEB",
        "meta_object_id": "1997-051N",
        "meta_epoch": "2025-12-19T05:41:18.511584",
        "meta_mean_motion": 14.41481598,
        "meta_eccentricity": 0.00149197,
        "meta_inclination": 86.363,
        "meta_ra_of_asc_node": 46.7797,
        "meta_arg_of_pericenter": 135.0878,
        "meta_mean_anomaly": 292.0946,
        "meta_ephemeris_type": 0,
        "meta_classification_type": "U",
        "meta_norad_cat_id": 33775,
        "meta_element_set_no": 999,
        "meta_rev_at_epoch": 88234,
        "meta_bstar": 0.00022883463,
        "meta_mean_motion_dot": 7.63e-06,
        "meta_mean_motion_ddot": 0,
        "tle_line1": "1 33775U 97051N   25353.23701981  .00000763  00000+0  22883-3 0  9997",
        "tle_line2": "2 33775  86.3630  46.7797 0014919 135.0878 292.0946 14.41481598882341"
      },
      "geometry": {
        "type": "Point",
        "coordinates": [
          59.319951980084916,
          73.99057036256336
        ]
      }
    },
    {
      "type": "Feature",
      "properties": {
        "norad_id": 33776,
        "name": "IRIDIUM 33 DEB",
        "group": "iridium-33-debris",
        "lat": -41.5556763027065,
        "lon": -99.01934474650555,
        "alt_km": 764.6477286372547,
        "timestamp": "2025-12-19T20:43:00.470103+00:00",
        "meta_object_name": "IRIDIUM 33 DEB",
        "meta_object_id": "1997-051P",
        "meta_epoch": "2025-12-19T04:55:47.968320",
        "meta_mean_motion": 14.38245973,
        "meta_eccentricity": 0.00151018,
        "meta_inclination": 86.4035,
        "meta_ra_of_asc_node": 78.0608,
        "meta_arg_of_pericenter": 169.4849,
        "meta_mean_anomaly": 248.2984,
        "meta_ephemeris_type": 0,
        "meta_classification_type": "U",
        "meta_norad_cat_id": 33776,
        "meta_element_set_no": 999,
        "meta_rev_at_epoch": 88175,
        "meta_bstar": 0.00020483823,
        "meta_mean_motion_dot": 6.43e-06,
        "meta_mean_motion_ddot": 0,
        "tle_line1": "1 33776U 97051P   25353.20541630  .00000643  00000+0  20484-3 0  9990",
        "tle_line2": "2 33776  86.4035  78.0608 0015101 169.4849 248.2984 14.38245973881754"
      },
      "geometry": {
        "type": "Point",
        "coordinates": [
          -99.01934474650555,
          -41.5556763027065
        ]
      }
    },
    {
      "type": "Feature",
      "properties": {
        "norad_id": 33777,
        "name": "IRIDIUM 33 DEB",
        "group": "iridium-33-debris",
        "lat": 84.14499005038948,
        "lon": 173.95474810453885,
        "alt_km": 701.9995083813692,
        "timestamp": "2025-12-19T20:43:00.470116+00:00",
        "meta_object_name": "IRIDIUM 33 DEB",
        "meta_object_id": "1997-051Q",
        "meta_epoch": "2025-12-19T03:47:07.455552",
        "meta_mean_motion": 14.5565724,
        "meta_eccentricity": 0.00056471,
        "meta_inclination": 86.3778,
        "meta_ra_of_asc_node": 32.4117,
        "meta_arg_of_pericenter": 220.5643,
        "meta_mean_anomaly": 139.5144,
        "meta_ephemeris_type": 0,
        "meta_classification_type": "U",
        "meta_norad_cat_id": 33777,
        "meta_element_set_no": 999,
        "meta_rev_at_epoch": 88627,
        "meta_bstar": 0.00061273741,
        "meta_mean_motion_dot": 2.696e-05,
        "meta_mean_motion_ddot": 0,
        "tle_line1": "1 33777U 97051Q   25353.15772518  .00002696  00000+0  61274-3 0  9998",
        "tle_line2": "2 33777  86.3778  32.4117 0005647 220.5643 139.5144 14.55657240886277"
      },
      "geometry": {
        "type": "Point",
        "coordinates": [
          173.95474810453885,
          84.14499005038948
        ]
      }
    },
    {
      "type": "Feature",
      "properties": {
        "norad_id": 33850,
        "name": "IRIDIUM 33 DEB",
        "group": "iridium-33-debris",
        "lat": 72.30183017722324,
        "lon": 38.68394193861741,
        "alt_km": 740.8753096456212,
        "timestamp": "2025-12-19T20:43:00.470130+00:00",
        "meta_object_name": "IRIDIUM 33 DEB",
        "meta_object_id": "1997-051T",
        "meta_epoch": "2025-12-19T04:01:16.980096",
        "meta_mean_motion": 14.42160199,
        "meta_eccentricity": 0.00128264,
        "meta_inclination": 86.3412,
        "meta_ra_of_asc_node": 27.4157,
        "meta_arg_of_pericenter": 141.7137,
        "meta_mean_anomaly": 281.8035,
        "meta_ephemeris_type": 0,
        "meta_classification_type": "U",
        "meta_norad_cat_id": 33850,
        "meta_element_set_no": 999,
        "meta_rev_at_epoch": 88245,
        "meta_bstar": 0.00027148947,
        "meta_mean_motion_dot": 9.14e-06,
        "meta_mean_motion_ddot": 0,
        "tle_line1": "1 33850U 97051T   25353.16755764  .00000914  00000+0  27149-3 0  9999",
        "tle_line2": "2 33850  86.3412  27.4157 0012826 141.7137 281.8035 14.42160199882455"
      },
      "geometry": {
        "type": "Point",
        "coordinates": [
          38.68394193861741,
          72.30183017722324
        ]
      }
    },
    {
      "type": "Feature",
      "properties": {
        "norad_id": 33853,
        "name": "IRIDIUM 33 DEB",
        "group": "iridium-33-debris",
        "lat": 71.09760220402683,
        "lon": -1.5213986727630324,
        "alt_km": 1008.1709784283121,
        "timestamp": "2025-12-19T20:43:00.470143+00:00",
        "meta_object_name": "IRIDIUM 33 DEB",
        "meta_object_id": "1997-051W",
        "meta_epoch": "2025-12-19T00:02:12.626592",
        "meta_mean_motion": 13.99096092,
        "meta_eccentricity": 0.02071458,
        "meta_inclination": 85.9999,
        "meta_ra_of_asc_node": 347.0651,
        "meta_arg_of_pericenter": 216.4718,
        "meta_mean_anomaly": 199.1935,
        "meta_ephemeris_type": 0,
        "meta_classification_type": "U",
        "meta_norad_cat_id": 33853,
        "meta_element_set_no": 999,
        "meta_rev_at_epoch": 85433,
        "meta_bstar": 0.0012839679,
        "meta_mean_motion_dot": 2.25e-05,
        "meta_mean_motion_ddot": 0,
        "tle_line1": "1 33853U 97051W   25353.00153503  .00002250  00000+0  12840-2 0  9994",
        "tle_line2": "2 33853  85.9999 347.0651 0207145 216.4718 199.1935 13.99096092854335"
      },
      "geometry": {
        "type": "Point",
        "coordinates": [
          -1.5213986727630324,
          71.09760220402683
        ]
      }
    }
  ]
}